IRIDIUM 155             
1 43573U 18061E   24229.40306657  .00001172  00000+0  41132-3 0  9992
2 43573  86.4009 336.5952 0002077  87.3620 272.7813 14.34222024317359
IRIDIUM 154             
1 43574U 18061F   24229.38404942  .00000889  00000+0  31032-3 0  9998
2 43574  86.4018 336.7036 0002297  98.3242 261.8214 14.34214932317400
IRIDIUM 163             
1 43575U 18061G   24229.36501737  .00000169  00000+0  53392-4 0  9992
2 43575  86.4020 336.6493 0002420  98.2848 261.8622 14.34209700317375
IRIDIUM 156             
1 43576U 18061H   24229.33964610  .00000591  00000+0  20402-3 0  9997
2 43576  86.4012 336.6648 0001975  95.4018 264.7403 14.34213332317365
IRIDIUM 164             
1 43577U 18061J   24229.39038327  .00000843  00000+0  29387-3 0  9992
2 43577  86.4013 336.6736 0002146 102.9539 257.1896 14.34223000317419
IRIDIUM 159             
1 43578U 18061K   24229.35867301  .00000414  00000+0  14077-3 0  9995
2 43578  86.4014 336.6379 0002256  95.4593 264.6860 14.34216788317376
IRIDIUM 180             
1 43922U 19002A   24229.21863700  .00001018  00000+0  35650-3 0  9999
2 43922  86.3927 273.5619 0002488  95.5040 264.6439 14.34208800292967
IRIDIUM 176             
1 43923U 19002B   24229.54111861  .00003143  00000+0  49411-3 0  9991
2 43923  86.6060 273.4439 0002395 100.7517 259.3970 14.72279549300728
IRIDIUM 168             
1 43924U 19002C   24229.21229707  .00000680  00000+0  23561-3 0  9996
2 43924  86.3928 273.6226 0002374  95.1225 265.0241 14.34212977292944
IRIDIUM 173             
1 43925U 19002D   24229.19960885  .00000546  00000+0  18808-3 0  9992
2 43925  86.3915 273.5439 0002484  93.5321 266.6158 14.34212485292923
IRIDIUM 169             
1 43926U 19002E   24229.29100186  .00001542  00000+0  49756-3 0  9997
2 43926  86.4231 305.1461 0003759  65.7387 294.4204 14.38608082293919
IRIDIUM 172             
1 43927U 19002F   24229.19326603  .00000568  00000+0  19563-3 0  9991
2 43927  86.3922 273.5529 0002255  92.6115 267.5338 14.34210907292938
IRIDIUM 175             
1 43928U 19002G   24229.39974643  .00001393  00000+0  21698-3 0  9996
2 43928  86.1472 243.2399 0002475  87.1463 273.0037 14.72230821300695
IRIDIUM 171             
1 43929U 19002H   24229.52307659  .00000824  00000+0  28713-3 0  9992
2 43929  86.3923 273.6445 0002108  96.3465 263.7971 14.34218957292973
IRIDIUM 170             
1 43930U 19002J   24229.54731243  .00003176  00000+0  49932-3 0  9995
2 43930  86.6060 273.4465 0002310  95.4891 264.6589 14.72279568300734
IRIDIUM 167             
1 43931U 19002K   24229.16788567  .00000782  00000+0  27213-3 0  9993
2 43931  86.3928 273.5799 0002127  94.8638 265.2801 14.34224779292921
IRIDIUM 181             
1 56726U 23068S   24229.34313343  .00001493  00000+0  43505-3 0  9994
2 56726  86.8676 330.1744 0002159  90.6503 269.4946 14.43603277 65818
IRIDIUM 177             
1 56727U 23068T   24229.52575068  .00003902  00000+0  50981-3 0  9992
2 56727  86.1960 286.7129 0002151  89.9715 270.1753 14.80245221 67302
IRIDIUM 174             
1 56728U 23068U   24229.52033171  .00001967  00000+0  25532-3 0  9990
2 56728  86.1966 286.8239 0002215  85.7181 274.4293 14.80243738 67301
IRIDIUM 178             
1 56729U 23068V   24229.31207894  .00004477  00000+0  58547-3 0  9994
2 56729  86.5797 307.2437 0001911  92.2382 267.9059 14.80241939 67278
IRIDIUM 179             
1 56730U 23068W   24229.23900955  .00004766  00000+0  62244-3 0  9995
2 56730  86.6811 312.1665 0002275  95.2600 264.8881 14.80308923 67261
